AEROCUBE 8C             
1 41853U 16067F   23263.35211283  .00008510  00000+0  63747-3 0  9995
2 41853  98.0629  53.7729 0008223 222.7181 137.3405 15.02946923374646
PROMETHEUS 2-1          
1 41854U 16067G   23263.41009824  .00014244  00000+0  94025-3 0  9993
2 41854  98.0805  57.7042 0015393 254.3053 105.6475 15.07464558374829
PROMETHEUS 2-3          
1 41855U 16067H   23263.40425295  .00014611  00000+0  96538-3 0  9996
2 41855  98.0722  57.4582 0013023 264.1904  95.7838 15.07451534374828
INS-1B                  
1 41954U 17008G   23263.47012391  .00432968  00000+0  18411-2 0  9990
2 41954  97.1795 326.4071 0002225 255.1091 104.9933 15.84178331367804
DIDO-2                  
1 42000U 17008BE  23263.12107742  .00038834  00000+0  84480-3 0  9994
2 42000  97.1908 317.9031 0006120  63.3727 296.8148 15.44193521366562
PEASSS                  
1 42015U 17008BV  23263.15453147  .00131433  00000+0  12985-2 0  9995
2 42015  97.1922 327.6723 0001416  51.2666 308.8720 15.65470371367645
UCLSAT                  
1 42765U 17036A   23263.58227205  .00152357  00000+0  14431-2 0  9995
2 42765  97.1282 302.7146 0005831 108.0432 252.1464 15.66446397348733
AALTO-1                 
1 42775U 17036L   23263.55611040  .00029978  00000+0  76376-3 0  9996
2 42775  97.1456 291.0565 0011124 116.1984 244.0408 15.39439553347177
URSA MAIOR              
1 42776U 17036M   23263.60809920  .00033576  00000+0  78266-3 0  9998
2 42776  97.1460 292.7752 0010730 112.5398 247.6986 15.42118449347273
DIAMOND RED             
1 42783U 17036U   23263.55746161  .00047164  00000+0  94940-3 0  9992
2 42783  97.1421 296.5114 0009034 113.2797 246.9405 15.46410160347501
PEGASUS                 
1 42784U 17036V   23263.58414144  .00091943  00000+0  12414-2 0  9998
2 42784  97.1367 300.4089 0007477 105.4537 254.7546 15.57436990347774
DIAMOND GREEN           
1 42785U 17036W   23263.08696980  .00054297  00000+0  10282-2 0  9996
2 42785  97.1411 296.4281 0008682 115.5302 244.6848 15.48153165347520
DIAMOND BLUE            
1 42786U 17036X   23263.27811271  .00046766  00000+0  91620-3 0  9998
2 42786  97.1415 296.4812 0008832 112.6675 247.5510 15.47203659347546
SUCHAI                  
1 42788U 17036Z   23263.60239021  .00541314  00000+0  18332-2 0  9991
2 42788  97.1232 306.5260 0003461 152.5866 207.5590 15.88648947348254
SKCUBE                  
1 42789U 17036AA  23263.57691961  .00167472  00000+0  14878-2 0  9993
2 42789  97.1292 303.5062 0006177 108.3011 251.8924 15.67989865347971
ROBUSTA 1B              
1 42792U 17036AD  23263.11302547  .00340867  00000+0  18457-2 0  9994
2 42792  97.1261 305.1089 0004158 126.1458 234.0195 15.79143431348055
CICERO 6                
1 42793U 17036AE  23263.59201826  .00033336  00000+0  73541-3 0  9991
2 42793  97.1405 296.3651 0008453 113.9682 246.2452 15.43790636347592
CORVUS BC2              
1 42846U 17042X   23263.50680322  .00004690  00000+0  43070-3 0  9995
2 42846  97.3822  99.1235 0007120 248.4327 111.6136 14.95259246336969
CORVUS BC1              
1 42847U 17042Y   23263.49205265  .00004548  00000+0  41690-3 0  9991
2 42847  97.3809  99.4744 0006978 246.5127 113.5362 14.95348337336973
MIRATA                  
1 43015U 17073C   23263.19199446  .00020658  00000+0  12284-2 0  9999
2 43015  97.6182 148.2818 0205260  97.1938 265.2668 14.95245225315678
MAKERSAT 0              
1 43016U 17073D   23263.18700826  .00013085  00000+0  84817-3 0  9997
2 43016  97.6153 145.7075 0222013 108.7955 253.7488 14.90106207315456
CORVUS BC3              
1 43118U 18004H   23263.49385882  .00039638  00000+0  89209-3 0  9992
2 43118  97.3173 337.9801 0007352 153.5158 206.6467 15.43169663316718
CICERO 7                
1 43143U 18004AJ  23263.51159975  .00160680  00000+0  12902-2 0  9992
2 43143  97.3176 353.4719 0002737 160.1080 200.0290 15.70494956317630
GOMX-4B                 
1 43196U 18015E   23263.39420166  .00029786  00000+0  74954-3 0  9998
2 43196  97.5904  57.4108 0012795 222.3213 137.7047 15.39803265313584
GOMX-4A                 
1 43197U 18015F   23263.56681752  .00030913  00000+0  68211-3 0  9991
2 43197  97.5895  60.2180 0012126 214.5288 145.5173 15.43763833313790
CUBEBEL-1 (BSUSAT-1)    
1 43666U 18083E   23263.56700183  .00063540  00000+0  13199-2 0  9993
2 43666  97.3717 296.1532 0010043 130.0515 230.1617 15.45404821271893
CICERO 10               
1 43690U 18088A   23263.33536335  .00036186  00000+0  88395-3 0  9993
2 43690  85.0331   8.0108 0009327 228.4551 131.5902 15.40629815270123
PROXIMA I               
1 43694U 18088E   23263.29007813  .00049592  00000+0  10602-2 0  9996
2 43694  85.0260   3.2861 0011592 192.1154 167.9823 15.44556621270431
PROXIMA II              
1 43696U 18088G   23262.79482607  .00053980  00000+0  11623-2 0  9990
2 43696  85.0268   3.6934 0011607 194.0566 166.0367 15.44330910270345
SIRION PATHFINDER-2     
1 43759U 18099B   23263.44028992  .00005805  00000+0  47731-3 0  9991
2 43759  97.5608 322.3994 0015055 150.3103 209.8978 14.99425121261893
CORVUS BC4              
1 43767U 18099K   23263.43839364  .00006407  00000+0  53367-3 0  9993
2 43767  97.5561 320.2067 0012201 153.7652 206.4192 14.98920205261796
MOVE-II                 
1 43780U 18099Y   23263.39833538  .00017758  00000+0  12273-2 0  9991
2 43780  97.5609 325.4941 0008746 181.7001 178.4198 15.05758007262052
SPACEBEE-7              
1 43816U 18099BL  23263.40227544  .00013529  00000+0  97885-3 0  9992
2 43816  97.5868 326.4295 0012505 132.9644 227.2633 15.04072040261614
SPACEBEE-5              
1 43817U 18099BM  23262.17928479  .00076357  00000+0  30211-2 0  9998
2 43817  97.5822 334.9119 0004336 133.1735 226.9866 15.25140326261981
SPACEBEE-6              
1 43818U 18099BN  23263.43616722  .00019878  00000+0  12703-2 0  9995
2 43818  97.5804 328.9785 0012636 144.4704 215.7368 15.08601117261914
SHIELDS 1               
1 43850U 18104B   23263.61699295  .00010034  00000+0  34218-3 0  9995
2 43850  85.0222 105.5944 0013097  12.9508 347.2072 15.30117769264696
STF-1                   
1 43852U 18104D   23263.52442272  .00061628  00000+0  10677-2 0  9995
2 43852  85.0167 101.6733 0008665   7.4378 352.7006 15.50630091265136
ZACUBE-2                
1 43907U 18111AH  23263.58233399  .00047251  00000+0  94900-3 0  9996
2 43907  97.1195 141.2151 0011090 215.8082 144.2426 15.46453604263865
LUME 1                  
1 43908U 18111AJ  23263.42624703  .00064443  00000+0  97180-3 0  9998
2 43908  97.1191 145.6925 0009290 194.0321 166.0677 15.54516878264146
MOVE-IIB                
1 44398U 19038N   23263.53847259  .00134415  00000+0  20179-2 0  9996
2 44398  97.6652 251.7989 0004749 326.6111  33.4842 15.54413036233408
SONATE                  
1 44400U 19038Q   23263.47753950  .00016658  00000+0  69816-3 0  9997
2 44400  97.6939 243.2715 0019005 346.9233  13.1508 15.23431729232738
LUCKY-7                 
1 44406U 19038W   23263.49264254  .00022426  00000+0  84241-3 0  9998
2 44406  97.6896 244.9895 0016678 341.1221  18.9397 15.27068242232852
BEESAT 9                
1 44412U 19038AC  23263.48319576  .00040203  00000+0  11687-2 0  9998
2 44412  97.6821 247.6410 0011837 340.6773  19.4019 15.35280108232750
JAISAT-1                
1 44419U 19038F   23263.41568193  .00041256  00000+0  11907-2 0  9993
2 44419  97.6812 248.6883 0011063 337.6792  22.3967 15.35509494233129
DUCHIFAT-3              
1 44854U 19089C   23263.34842151  .00013971  00000+0  89465-3 0  9991
2 44854  36.9606 241.8583 0006645   5.0553 355.0257 15.07943212207265
EYESAT-NANO             
1 44877U 19092E   23263.53211085  .00144773  00000+0  20321-2 0  9997
2 44877  97.4540  96.9530 0004210 148.5793 211.5714 15.56219216208859
M2 PATHFINDER           
1 45727U 20037E   23263.48132681  .00004544  00000+0  42403-3 0  9998
2 45727  97.7639  77.0898 0011057 310.6424  49.3835 14.94650529175472
NETSAT-4                
1 46504U 20068U   23263.38254241  .00010046  00000+0  63984-3 0  9993
2 46504  97.7699 210.2088 0009914 194.1603 165.9348 15.08921972163253
NETSAT-3                
1 46505U 20068V   23263.42872498  .00008740  00000+0  56111-3 0  9991
2 46505  97.7667 210.0234 0008975 202.7233 157.3599 15.08678339163261
NETSAT-1                
1 46506U 20068W   23263.56214215  .00007314  00000+0  47667-3 0  9996
2 46506  97.7684 209.9957 0007078 212.1665 147.9131 15.08199263163279
NETSAT-2                
1 46507U 20068X   23263.58397304  .00009485  00000+0  60589-3 0  9999
2 46507  97.7685 210.1312 0006065 216.8330 143.2482 15.08854696163237
SAI-1 NANOCONNECT-2     
1 47701U 21015C   23263.19389134  .00145744  00000+0  15850-2 0  9997
2 47701  97.3746 349.4604 0006989 232.3507 127.7118 15.62951076142917
WILDTRACKCUBE-SIMBA     
1 47941U 21022K   23263.53555067  .00013162  00000+0  72952-3 0  9994
2 47941  97.4832 158.9015 0018906  13.3198 346.8529 15.13766469137420
BEESAT-6                
1 47957U 21022AB  23261.66233162  .00034421  00000+0  14515-2 0  9993
2 47957  97.4808 159.9738 0015618  14.7658 345.4031 15.23118556137147
SMOG-1                  
1 47964U 21022AJ  23263.51837214  .00035155  00000+0  13928-2 0  9997
2 47964  97.4852 164.1765 0012952 355.7309   4.3816 15.25249343136581
BCCSAT-1                
1 48041U 21022AK  23263.44290487  .00028292  00000+0  12238-2 0  9998
2 48041  97.4845 162.6527 0011240 359.5010   0.6213 15.22350957136456
BEESAT-5                
1 48083U 21022AM  23263.17159037  .00040020  00000+0  15835-2 0  9998
2 48083  97.4703 161.8010 0014541   9.1766 350.9735 15.25242238136541
BEESAT-7                
1 48084U 21022AN  23263.20024979  .00031914  00000+0  13123-2 0  9999
2 48084  97.4811 161.7075 0014636   9.9494 350.2030 15.24000224136113
BEESAT-8                
1 48085U 21022AP  23263.21471231  .00017905  00000+0  87124-3 0  9995
2 48085  97.4863 160.6370 0016989   9.6941 350.4617 15.18319775136596
